{
  "type": "FeatureCollection",
  "features": [
    {
      "type": "Feature",
      "properties": {
        "norad_id": 67011,
        "name": "STARLINK-36167",
        "group": "last-30-days",
        "lat": 33.28695916279923,
        "lon": 89.32488976365354,
        "alt_km": 352.05141116109735,
        "timestamp": "2025-12-26T19:22:37.608277+00:00",
        "meta_object_name": "STARLINK-36167",
        "meta_object_id": "2025-293J",
        "meta_epoch": "2025-12-26T14:00:04.000032",
        "meta_mean_motion": 15.72724561,
        "meta_eccentricity": 0.00037729,
        "meta_inclination": 69.996,
        "meta_ra_of_asc_node": 283.7955,
        "meta_arg_of_pericenter": 264.9457,
        "meta_mean_anomaly": 51.7192,
        "meta_ephemeris_type": 0,
        "meta_classification_type": "U",
        "meta_norad_cat_id": 67011,
        "meta_element_set_no": 999,
        "meta_rev_at_epoch": 233,
        "meta_bstar": -0.013439486,
        "meta_mean_motion_dot": -0.01617267,
        "meta_mean_motion_ddot": 0,
        "tle_line1": "1 67011U 25293J   25360.58337963 -.01617267  00000+0 -13439-1 0  9998",
        "tle_line2": "2 67011  69.9960 283.7955 0003772 264.9457  51.7192 15.72724561  2334"
      },
      "geometry": {
        "type": "Point",
        "coordinates": [
          89.32488976365354,
          33.28695916279923
        ]
      }
    },
    {
      "type": "Feature",
      "properties": {
        "norad_id": 67012,
        "name": "STARLINK-36175",
        "group": "last-30-days",
        "lat": 29.149090363122625,
        "lon": 91.435697684545,
        "alt_km": 352.705615453905,
        "timestamp": "2025-12-26T19:22:37.608287+00:00",
        "meta_object_name": "STARLINK-36175",
        "meta_object_id": "2025-293K",
        "meta_epoch": "2025-12-26T14:00:04.000032",
        "meta_mean_motion": 15.72692413,
        "meta_eccentricity": 0.00037939,
        "meta_inclination": 69.9964,
        "meta_ra_of_asc_node": 283.7904,
        "meta_arg_of_pericenter": 266.1925,
        "meta_mean_anomaly": 55.0108,
        "meta_ephemeris_type": 0,
        "meta_classification_type": "U",
        "meta_norad_cat_id": 67012,
        "meta_element_set_no": 999,
        "meta_rev_at_epoch": 233,
        "meta_bstar": -0.013493545,
        "meta_mean_motion_dot": -0.01621084,
        "meta_mean_motion_ddot": 0,
        "tle_line1": "1 67012U 25293K   25360.58337963 -.01621084  00000+0 -13494-1 0  9992",
        "tle_line2": "2 67012  69.9964 283.7904 0003793 266.1925  55.0108 15.72692413  2334"
      },
      "geometry": {
        "type": "Point",
        "coordinates": [
          91.435697684545,
          29.149090363122625
        ]
      }
    },
    {
      "type": "Feature",
      "properties": {
        "norad_id": 67013,
        "name": "STARLINK-35856",
        "group": "last-30-days",
        "lat": 26.967721820115912,
        "lon": 92.47329234023171,
        "alt_km": 352.8815143781694,
        "timestamp": "2025-12-26T19:22:37.608297+00:00",
        "meta_object_name": "STARLINK-35856",
        "meta_object_id": "2025-293L",
        "meta_epoch": "2025-12-26T14:00:04.000032",
        "meta_mean_motion": 15.72666805,
        "meta_eccentricity": 0.00037535,
        "meta_inclination": 69.9963,
        "meta_ra_of_asc_node": 283.7875,
        "meta_arg_of_pericenter": 262.7256,
        "meta_mean_anomaly": 60.8627,
        "meta_ephemeris_type": 0,
        "meta_classification_type": "U",
        "meta_norad_cat_id": 67013,
        "meta_element_set_no": 999,
        "meta_rev_at_epoch": 233,
        "meta_bstar": -0.013470364,
        "meta_mean_motion_dot": -0.01616989,
        "meta_mean_motion_ddot": 0,
        "tle_line1": "1 67013U 25293L   25360.58337963 -.01616989  00000+0 -13470-1 0  9995",
        "tle_line2": "2 67013  69.9963 283.7875 0003753 262.7256  60.8627 15.72666805  2332"
      },
      "geometry": {
        "type": "Point",
        "coordinates": [
          92.47329234023171,
          26.967721820115912
        ]
      }
    },
    {
      "type": "Feature",
      "properties": {
        "norad_id": 67014,
        "name": "STARLINK-36207",
        "group": "last-30-days",
        "lat": 24.862894176264962,
        "lon": 93.4349087296463,
        "alt_km": 353.300313925155,
        "timestamp": "2025-12-26T19:22:37.608309+00:00",
        "meta_object_name": "STARLINK-36207",
        "meta_object_id": "2025-293M",
        "meta_epoch": "2025-12-26T14:00:04.000032",
        "meta_mean_motion": 15.72645611,
        "meta_eccentricity": 0.00038548,
        "meta_inclination": 69.9967,
        "meta_ra_of_asc_node": 283.7856,
        "meta_arg_of_pericenter": 264.8911,
        "meta_mean_anomaly": 60.988,
        "meta_ephemeris_type": 0,
        "meta_classification_type": "U",
        "meta_norad_cat_id": 67014,
        "meta_element_set_no": 999,
        "meta_rev_at_epoch": 239,
        "meta_bstar": -0.013433718,
        "meta_mean_motion_dot": -0.01611854,
        "meta_mean_motion_ddot": 0,
        "tle_line1": "1 67014U 25293M   25360.58337963 -.01611854  00000+0 -13434-1 0  9992",
        "tle_line2": "2 67014  69.9967 283.7856 0003854 264.8911  60.9880 15.72645611  2399"
      },
      "geometry": {
        "type": "Point",
        "coordinates": [
          93.4349087296463,
          24.862894176264962
        ]
      }
    },
    {
      "type": "Feature",
      "properties": {
        "norad_id": 67015,
        "name": "STARLINK-36093",
        "group": "last-30-days",
        "lat": 20.668594580138212,
        "lon": 95.24840997207455,
        "alt_km": 353.82319922474744,
        "timestamp": "2025-12-26T19:22:37.608319+00:00",
        "meta_object_name": "STARLINK-36093",
        "meta_object_id": "2025-293N",
        "meta_epoch": "2025-12-26T14:00:04.000032",
        "meta_mean_motion": 15.72615592,
        "meta_eccentricity": 0.0003681,
        "meta_inclination": 69.9963,
        "meta_ra_of_asc_node": 283.7794,
        "meta_arg_of_pericenter": 264.1624,
        "meta_mean_anomaly": 66.2548,
        "meta_ephemeris_type": 0,
        "meta_classification_type": "U",
        "meta_norad_cat_id": 67015,
        "meta_element_set_no": 999,
        "meta_rev_at_epoch": 233,
        "meta_bstar": -0.013533605,
        "meta_mean_motion_dot": -0.01620514,
        "meta_mean_motion_ddot": 0,
        "tle_line1": "1 67015U 25293N   25360.58337963 -.01620514  00000+0 -13534-1 0  9997",
        "tle_line2": "2 67015  69.9963 283.7794 0003681 264.1624  66.2548 15.72615592  2338"
      },
      "geometry": {
        "type": "Point",
        "coordinates": [
          95.24840997207455,
          20.668594580138212
        ]
      }
    },
    {
      "type": "Feature",
      "properties": {
        "norad_id": 67016,
        "name": "STARLINK-36120",
        "group": "last-30-days",
        "lat": 22.841291879379717,
        "lon": 94.32387400218875,
        "alt_km": 353.56996671777324,
        "timestamp": "2025-12-26T19:22:37.608328+00:00",
        "meta_object_name": "STARLINK-36120",
        "meta_object_id": "2025-293P",
        "meta_epoch": "2025-12-26T14:00:04.000032",
        "meta_mean_motion": 15.72634518,
        "meta_eccentricity": 0.0003775,
        "meta_inclination": 69.9965,
        "meta_ra_of_asc_node": 283.7824,
        "meta_arg_of_pericenter": 265.1245,
        "meta_mean_anomaly": 62.9422,
        "meta_ephemeris_type": 0,
        "meta_classification_type": "U",
        "meta_norad_cat_id": 67016,
        "meta_element_set_no": 999,
        "meta_rev_at_epoch": 233,
        "meta_bstar": -0.013495357,
        "meta_mean_motion_dot": -0.01617684,
        "meta_mean_motion_ddot": 0,
        "tle_line1": "1 67016U 25293P   25360.58337963 -.01617684  00000+0 -13495-1 0  9998",
        "tle_line2": "2 67016  69.9965 283.7824 0003775 265.1245  62.9422 15.72634518  2332"
      },
      "geometry": {
        "type": "Point",
        "coordinates": [
          94.32387400218875,
          22.841291879379717
        ]
      }
    },
    {
      "type": "Feature",
      "properties": {
        "norad_id": 67017,
        "name": "STARLINK-35498",
        "group": "last-30-days",
        "lat": 18.58065916192019,
        "lon": 96.10997468920058,
        "alt_km": 354.27416764268037,
        "timestamp": "2025-12-26T19:22:37.608340+00:00",
        "meta_object_name": "STARLINK-35498",
        "meta_object_id": "2025-293Q",
        "meta_epoch": "2025-12-26T14:00:04.000032",
        "meta_mean_motion": 15.7259468,
        "meta_eccentricity": 0.00038541,
        "meta_inclination": 69.9956,
        "meta_ra_of_asc_node": 283.7764,
        "meta_arg_of_pericenter": 267.1159,
        "meta_mean_anomaly": 65.5577,
        "meta_ephemeris_type": 0,
        "meta_classification_type": "U",
        "meta_norad_cat_id": 67017,
        "meta_element_set_no": 999,
        "meta_rev_at_epoch": 252,
        "meta_bstar": -0.013491731,
        "meta_mean_motion_dot": -0.01614911,
        "meta_mean_motion_ddot": 0,
        "tle_line1": "1 67017U 25293Q   25360.58337963 -.01614911  00000+0 -13492-1 0  9996",
        "tle_line2": "2 67017  69.9956 283.7764 0003854 267.1159  65.5577 15.72594680  2526"
      },
      "geometry": {
        "type": "Point",
        "coordinates": [
          96.10997468920058,
          18.58065916192019
        ]
      }
    }
  ]
}